[{"OBJECT_NAME":"STARLINK-36311","OBJECT_ID":"2026-068T","EPOCH":"2026-04-13T06:00:02.000160","MEAN_MOTION":15.80880675,"ECCENTRICITY":8.103e-5,"INCLINATION":53.1592,"RA_OF_ASC_NODE":335.9673,"ARG_OF_PERICENTER":74.7204,"MEAN_ANOMALY":8.8689,"EPHEMERIS_TYPE":0,"CLASSIFICATION_TYPE":"U","NORAD_CAT_ID":68525,"ELEMENT_SET_NO":999,"REV_AT_EPOCH":331,"BSTAR":-0.0001546143,"MEAN_MOTION_DOT":-0.00031114,"MEAN_MOTION_DDOT":0},{"OBJECT_NAME":"STARLINK-37178","OBJECT_ID":"2026-068U","EPOCH":"2026-04-13T06:00:02.000160","MEAN_MOTION":15.80886107,"ECCENTRICITY":6.905e-5,"INCLINATION":53.1591,"RA_OF_ASC_NODE":335.9766,"ARG_OF_PERICENTER":72.1189,"MEAN_ANOMALY":7.2046,"EPHEMERIS_TYPE":0,"CLASSIFICATION_TYPE":"U","NORAD_CAT_ID":68526,"ELEMENT_SET_NO":999,"REV_AT_EPOCH":336,"BSTAR":-0.00026370883,"MEAN_MOTION_DOT":-0.0005246,"MEAN_MOTION_DDOT":0},{"OBJECT_NAME":"STARLINK-37248","OBJECT_ID":"2026-068V","EPOCH":"2026-04-13T06:00:02.000160","MEAN_MOTION":15.8089304,"ECCENTRICITY":6.157e-5,"INCLINATION":53.159,"RA_OF_ASC_NODE":335.9586,"ARG_OF_PERICENTER":55.1513,"MEAN_ANOMALY":32.7064,"EPHEMERIS_TYPE":0,"CLASSIFICATION_TYPE":"U","NORAD_CAT_ID":68527,"ELEMENT_SET_NO":999,"REV_AT_EPOCH":336,"BSTAR":-0.00027591642,"MEAN_MOTION_DOT":-0.00054858,"MEAN_MOTION_DDOT":0},{"OBJECT_NAME":"STARLINK-37241","OBJECT_ID":"2026-068W","EPOCH":"2026-04-13T06:00:02.000160","MEAN_MOTION":15.8089428,"ECCENTRICITY":8.977e-5,"INCLINATION":53.1591,"RA_OF_ASC_NODE":335.941,"ARG_OF_PERICENTER":75.1512,"MEAN_ANOMALY":21.2483,"EPHEMERIS_TYPE":0,"CLASSIFICATION_TYPE":"U","NORAD_CAT_ID":68528,"ELEMENT_SET_NO":999,"REV_AT_EPOCH":336,"BSTAR":-0.00028150397,"MEAN_MOTION_DOT":-0.00055953,"MEAN_MOTION_DDOT":0},{"OBJECT_NAME":"STARLINK-37244","OBJECT_ID":"2026-068X","EPOCH":"2026-04-13T06:00:02.000160","MEAN_MOTION":15.80900311,"ECCENTRICITY":9.736e-5,"INCLINATION":53.1593,"RA_OF_ASC_NODE":335.95,"ARG_OF_PERICENTER":76.0476,"MEAN_ANOMALY":16.0784,"EPHEMERIS_TYPE":0,"CLASSIFICATION_TYPE":"U","NORAD_CAT_ID":68529,"ELEMENT_SET_NO":999,"REV_AT_EPOCH":336,"BSTAR":-0.00027853625,"MEAN_MOTION_DOT":-0.0005539,"MEAN_MOTION_DDOT":0},{"OBJECT_NAME":"STARLINK-36285","OBJECT_ID":"2026-068Y","EPOCH":"2026-04-13T06:00:02.000160","MEAN_MOTION":15.80889901,"ECCENTRICITY":7.953e-5,"INCLINATION":53.1589,"RA_OF_ASC_NODE":335.9322,"ARG_OF_PERICENTER":78.1916,"MEAN_ANOMALY":22.4779,"EPHEMERIS_TYPE":0,"CLASSIFICATION_TYPE":"U","NORAD_CAT_ID":68530,"ELEMENT_SET_NO":999,"REV_AT_EPOCH":331,"BSTAR":-0.00017785344,"MEAN_MOTION_DOT":-0.00035682,"MEAN_MOTION_DDOT":0},{"OBJECT_NAME":"STARLINK-36294","OBJECT_ID":"2026-068Z","EPOCH":"2026-04-13T06:00:02.000160","MEAN_MOTION":15.80889923,"ECCENTRICITY":7.306e-5,"INCLINATION":53.159,"RA_OF_ASC_NODE":335.9234,"ARG_OF_PERICENTER":97.6121,"MEAN_ANOMALY":7.3294,"EPHEMERIS_TYPE":0,"CLASSIFICATION_TYPE":"U","NORAD_CAT_ID":68531,"ELEMENT_SET_NO":999,"REV_AT_EPOCH":331,"BSTAR":-0.00022249394,"MEAN_MOTION_DOT":-0.00044419,"MEAN_MOTION_DDOT":0},{"OBJECT_NAME":"STARLINK-36249","OBJECT_ID":"2026-068AA","EPOCH":"2026-04-13T06:00:02.000160","MEAN_MOTION":15.80891037,"ECCENTRICITY":9.72e-5,"INCLINATION":53.1593,"RA_OF_ASC_NODE":335.9055,"ARG_OF_PERICENTER":82.9041,"MEAN_ANOMALY":30.5805,"EPHEMERIS_TYPE":0,"CLASSIFICATION_TYPE":"U","NORAD_CAT_ID":68532,"ELEMENT_SET_NO":999,"REV_AT_EPOCH":331,"BSTAR":-0.00024770955,"MEAN_MOTION_DOT":-0.0004935,"MEAN_MOTION_DDOT":0},{"OBJECT_NAME":"STARLINK-36252","OBJECT_ID":"2026-068AB","EPOCH":"2026-04-13T06:00:02.000160","MEAN_MOTION":15.80892301,"ECCENTRICITY":9.696e-5,"INCLINATION":53.1592,"RA_OF_ASC_NODE":335.9143,"ARG_OF_PERICENTER":74.7473,"MEAN_ANOMALY":34.466,"EPHEMERIS_TYPE":0,"CLASSIFICATION_TYPE":"U","NORAD_CAT_ID":68533,"ELEMENT_SET_NO":999,"REV_AT_EPOCH":331,"BSTAR":-0.00024950283,"MEAN_MOTION_DOT":-0.00049703,"MEAN_MOTION_DDOT":0},{"OBJECT_NAME":"STARLINK-36299","OBJECT_ID":"2026-068AC","EPOCH":"2026-04-13T06:00:02.000160","MEAN_MOTION":15.80893047,"ECCENTRICITY":7.526e-5,"INCLINATION":53.1592,"RA_OF_ASC_NODE":335.8965,"ARG_OF_PERICENTER":113.6411,"MEAN_ANOMALY":4.1218,"EPHEMERIS_TYPE":0,"CLASSIFICATION_TYPE":"U","NORAD_CAT_ID":68534,"ELEMENT_SET_NO":999,"REV_AT_EPOCH":331,"BSTAR":-0.00030604209,"MEAN_MOTION_DOT":-0.00060732,"MEAN_MOTION_DDOT":0},{"OBJECT_NAME":"STARLINK-37234","OBJECT_ID":"2026-068AD","EPOCH":"2026-04-13T06:00:02.000160","MEAN_MOTION":15.80902839,"ECCENTRICITY":9.066e-5,"INCLINATION":53.1593,"RA_OF_ASC_NODE":335.8787,"ARG_OF_PERICENTER":59.9232,"MEAN_ANOMALY":66.3761,"EPHEMERIS_TYPE":0,"CLASSIFICATION_TYPE":"U","NORAD_CAT_ID":68535,"ELEMENT_SET_NO":999,"REV_AT_EPOCH":336,"BSTAR":-0.00035579139,"MEAN_MOTION_DOT":-0.00070445,"MEAN_MOTION_DDOT":0},{"OBJECT_NAME":"STARLINK-37173","OBJECT_ID":"2026-068AE","EPOCH":"2026-04-13T06:00:02.000160","MEAN_MOTION":15.80882523,"ECCENTRICITY":8.456e-5,"INCLINATION":53.1591,"RA_OF_ASC_NODE":335.8879,"ARG_OF_PERICENTER":107.5992,"MEAN_ANOMALY":14.4394,"EPHEMERIS_TYPE":0,"CLASSIFICATION_TYPE":"U","NORAD_CAT_ID":68536,"ELEMENT_SET_NO":999,"REV_AT_EPOCH":336,"BSTAR":-0.00028033953,"MEAN_MOTION_DOT":-0.00055695,"MEAN_MOTION_DDOT":0},{"OBJECT_NAME":"SL-4 R/B","OBJECT_ID":"2026-061S","EPOCH":"2026-04-13T05:06:58.053888","MEAN_MOTION":15.96039299,"ECCENTRICITY":0.00187939,"INCLINATION":82.3036,"RA_OF_ASC_NODE":85.4192,"ARG_OF_PERICENTER":352.1933,"MEAN_ANOMALY":7.9047,"EPHEMERIS_TYPE":0,"CLASSIFICATION_TYPE":"U","NORAD_CAT_ID":68537,"ELEMENT_SET_NO":999,"REV_AT_EPOCH":326,"BSTAR":0.00047701312,"MEAN_MOTION_DOT":0.00198074,"MEAN_MOTION_DDOT":1.3890655e-5},{"OBJECT_NAME":"SWC-1","OBJECT_ID":"2026-069C","EPOCH":"2026-04-04T00:55:14.478528","MEAN_MOTION":1.02608558,"ECCENTRICITY":0.84368008,"INCLINATION":28.3174,"RA_OF_ASC_NODE":359.0866,"ARG_OF_PERICENTER":78.4879,"MEAN_ANOMALY":25.8197,"EPHEMERIS_TYPE":0,"CLASSIFICATION_TYPE":"U","NORAD_CAT_ID":68540,"ELEMENT_SET_NO":999,"REV_AT_EPOCH":3,"BSTAR":0,"MEAN_MOTION_DOT":-0.00012113,"MEAN_MOTION_DDOT":6.8891712e-5},{"OBJECT_NAME":"STARLINK-37326","OBJECT_ID":"2026-070A","EPOCH":"2026-04-13T06:00:02.000160","MEAN_MOTION":15.91677101,"ECCENTRICITY":8.283e-5,"INCLINATION":53.1595,"RA_OF_ASC_NODE":211.3539,"ARG_OF_PERICENTER":87.6018,"MEAN_ANOMALY":37.4606,"EPHEMERIS_TYPE":0,"CLASSIFICATION_TYPE":"U","NORAD_CAT_ID":68542,"ELEMENT_SET_NO":999,"REV_AT_EPOCH":293,"BSTAR":-0.0036447396,"MEAN_MOTION_DOT":-0.01216499,"MEAN_MOTION_DDOT":0.00043536588},{"OBJECT_NAME":"STARLINK-36308","OBJECT_ID":"2026-070B","EPOCH":"2026-04-13T06:00:02.000160","MEAN_MOTION":15.91771194,"ECCENTRICITY":8.398e-5,"INCLINATION":53.1593,"RA_OF_ASC_NODE":211.3473,"ARG_OF_PERICENTER":81.7501,"MEAN_ANOMALY":46.2053,"EPHEMERIS_TYPE":0,"CLASSIFICATION_TYPE":"U","NORAD_CAT_ID":68543,"ELEMENT_SET_NO":999,"REV_AT_EPOCH":288,"BSTAR":-0.0036230713,"MEAN_MOTION_DOT":-0.01215184,"MEAN_MOTION_DDOT":0.00043490548},{"OBJECT_NAME":"STARLINK-37263","OBJECT_ID":"2026-070C","EPOCH":"2026-04-13T06:00:02.000160","MEAN_MOTION":15.91960989,"ECCENTRICITY":8.082e-5,"INCLINATION":53.1592,"RA_OF_ASC_NODE":211.336,"ARG_OF_PERICENTER":83.1889,"MEAN_ANOMALY":50.4541,"EPHEMERIS_TYPE":0,"CLASSIFICATION_TYPE":"U","NORAD_CAT_ID":68544,"ELEMENT_SET_NO":999,"REV_AT_EPOCH":293,"BSTAR":-0.0035937097,"MEAN_MOTION_DOT":-0.01217225,"MEAN_MOTION_DDOT":0.00043703651},{"OBJECT_NAME":"STARLINK-37289","OBJECT_ID":"2026-070D","EPOCH":"2026-04-13T06:00:02.000160","MEAN_MOTION":15.91876475,"ECCENTRICITY":7.823e-5,"INCLINATION":53.1591,"RA_OF_ASC_NODE":211.3427,"ARG_OF_PERICENTER":85.5681,"MEAN_ANOMALY":44.7798,"EPHEMERIS_TYPE":0,"CLASSIFICATION_TYPE":"U","NORAD_CAT_ID":68545,"ELEMENT_SET_NO":999,"REV_AT_EPOCH":293,"BSTAR":-0.003600655,"MEAN_MOTION_DOT":-0.01214275,"MEAN_MOTION_DDOT":0.00043475618},{"OBJECT_NAME":"STARLINK-37290","OBJECT_ID":"2026-070E","EPOCH":"2026-04-13T06:00:02.000160","MEAN_MOTION":15.92044761,"ECCENTRICITY":8.343e-5,"INCLINATION":53.1594,"RA_OF_ASC_NODE":211.3287,"ARG_OF_PERICENTER":78.5,"MEAN_ANOMALY":58.5143,"EPHEMERIS_TYPE":0,"CLASSIFICATION_TYPE":"U","NORAD_CAT_ID":68546,"ELEMENT_SET_NO":999,"REV_AT_EPOCH":293,"BSTAR":-0.0035897399,"MEAN_MOTION_DOT":-0.01221137,"MEAN_MOTION_DDOT":0.00043995172},{"OBJECT_NAME":"STARLINK-37245","OBJECT_ID":"2026-070F","EPOCH":"2026-04-13T06:00:02.000160","MEAN_MOTION":15.92218632,"ECCENTRICITY":8.712e-5,"INCLINATION":53.1593,"RA_OF_ASC_NODE":211.3156,"ARG_OF_PERICENTER":81.0727,"MEAN_ANOMALY":62.3365,"EPHEMERIS_TYPE":0,"CLASSIFICATION_TYPE":"U","NORAD_CAT_ID":68547,"ELEMENT_SET_NO":999,"REV_AT_EPOCH":293,"BSTAR":-0.0035686152,"MEAN_MOTION_DOT":-0.01224934,"MEAN_MOTION_DDOT":0.00044319056},{"OBJECT_NAME":"STARLINK-37145","OBJECT_ID":"2026-070G","EPOCH":"2026-04-13T06:00:02.000160","MEAN_MOTION":15.92139838,"ECCENTRICITY":8.246e-5,"INCLINATION":53.1592,"RA_OF_ASC_NODE":211.323,"ARG_OF_PERICENTER":82.637,"MEAN_ANOMALY":57.2484,"EPHEMERIS_TYPE":0,"CLASSIFICATION_TYPE":"U","NORAD_CAT_ID":68548,"ELEMENT_SET_NO":999,"REV_AT_EPOCH":293,"BSTAR":-0.0035730812,"MEAN_MOTION_DOT":-0.01221485,"MEAN_MOTION_DDOT":0.00044058614},{"OBJECT_NAME":"STARLINK-36204","OBJECT_ID":"2026-070H","EPOCH":"2026-04-13T06:00:02.000160","MEAN_MOTION":15.92306159,"ECCENTRICITY":8.942e-5,"INCLINATION":53.1593,"RA_OF_ASC_NODE":211.3089,"ARG_OF_PERICENTER":78.6568,"MEAN_ANOMALY":68.038,"EPHEMERIS_TYPE":0,"CLASSIFICATION_TYPE":"U","NORAD_CAT_ID":68549,"ELEMENT_SET_NO":999,"REV_AT_EPOCH":288,"BSTAR":-0.0035631737,"MEAN_MOTION_DOT":-0.01228613,"MEAN_MOTION_DDOT":0.00044599418},{"OBJECT_NAME":"STARLINK-36304","OBJECT_ID":"2026-070J","EPOCH":"2026-04-13T06:00:02.000160","MEAN_MOTION":15.92475158,"ECCENTRICITY":8.558e-5,"INCLINATION":53.1591,"RA_OF_ASC_NODE":211.2947,"ARG_OF_PERICENTER":83.0783,"MEAN_ANOMALY":70.3876,"EPHEMERIS_TYPE":0,"CLASSIFICATION_TYPE":"U","NORAD_CAT_ID":68550,"ELEMENT_SET_NO":999,"REV_AT_EPOCH":288,"BSTAR":-0.0035486267,"MEAN_MOTION_DOT":-0.01234357,"MEAN_MOTION_DDOT":0.00045053585}]
